[{"OBJECT_NAME":"STARLINK-30509","OBJECT_ID":"2023-151P","EPOCH":"2026-03-09T22:00:01.999584","MEAN_MOTION":15.27574665,"ECCENTRICITY":0.0002053,"INCLINATION":42.9999,"RA_OF_ASC_NODE":349.3873,"ARG_OF_PERICENTER":272.379,"MEAN_ANOMALY":254.4567,"EPHEMERIS_TYPE":0,"CLASSIFICATION_TYPE":"U","NORAD_CAT_ID":57977,"ELEMENT_SET_NO":999,"REV_AT_EPOCH":567,"BSTAR":-0.00021699943,"MEAN_MOTION_DOT":-6.228e-5,"MEAN_MOTION_DDOT":0},{"OBJECT_NAME":"TANSTAAFL-2","OBJECT_ID":"2024-247B","EPOCH":"2026-03-08T04:58:51.015360","MEAN_MOTION":15.28016845,"ECCENTRICITY":0.00030723,"INCLINATION":44.988,"RA_OF_ASC_NODE":125.0934,"ARG_OF_PERICENTER":298.8909,"MEAN_ANOMALY":61.1666,"EPHEMERIS_TYPE":0,"CLASSIFICATION_TYPE":"U","NORAD_CAT_ID":62378,"ELEMENT_SET_NO":999,"REV_AT_EPOCH":6750,"BSTAR":0.00050871624,"MEAN_MOTION_DOT":0.00013897,"MEAN_MOTION_DDOT":0}]
